NORAD_CAT_ID,OBJECT_NAME,OBJECT_TYPE,EPOCH,MEAN_MOTION,ECCENTRICITY,INCLINATION,RA_OF_ASC_NODE,ARG_OF_PERICENTER,MEAN_ANOMALY,BSTAR,MEAN_MOTION_DOT,MEAN_MOTION_DDOT,TLE_LINE0,TLE_LINE1,TLE_LINE2,SEMIMAJOR_AXIS,PERIOD,APOGEE,PERIGEE,DECAYED
52657.0,STARLINK-4084,PAYLOAD,2023-01-07 05:16:09,15.08837364,0.0002652,53.2176,310.2058,22.6124,337.4984,0.00060536,9.359e-05,0.0,0 STARLINK-4084,1 52657U 22053B   23007.21955665  .00009359  00000-0  60536-3 0  9997,2 52657  53.2176 310.2058 0002652  22.6124 337.4984 15.08837364 36677,6917.888000000001,95.438,541.5880000000002,537.919,0.0
52657.0,STARLINK-4084,PAYLOAD,2023-01-07 13:13:05,15.08839907,0.0002772,53.2174,308.7185,21.0502,339.0604,0.00085586,0.00013359,0.0,0 STARLINK-4084,1 52657U 22053B   23007.55076120  .00013359  00000-0  85586-3 0  9991,2 52657  53.2174 308.7185 0002772  21.0502 339.0604 15.08839907 36722,6917.880999999999,95.438,541.663,537.828,0.0
52657.0,STARLINK-4084,PAYLOAD,2023-01-08 01:56:11,15.08834887,0.0002918,53.2176,306.34,26.6206,333.4935,0.00033984,5.124e-05,0.0,0 STARLINK-4084,1 52657U 22053B   23008.08068616  .00005124  00000-0  33984-3 0  9997,2 52657  53.2176 306.3400 0002918  26.6206 333.4935 15.08834887 36808,6917.896,95.438,541.78,537.742,0.0
52657.0,STARLINK-4084,PAYLOAD,2023-01-08 13:03:53,15.08834454,0.0003133,53.2175,304.26,29.016,331.1006,0.0001794,2.567e-05,0.0,0 STARLINK-4084,1 52657U 22053B   23008.54436924  .00002567  00000-0  17940-3 0  9991,2 52657  53.2175 304.2600 0003133  29.0160 331.1006 15.08834454 36873,6917.897,95.438,541.93,537.595,0.0
52657.0,STARLINK-4084,PAYLOAD,2023-01-09 01:46:58,15.08838763,0.0003048,53.2179,301.8802,29.9997,330.117,0.00032099,4.824e-05,0.0,0 STARLINK-4084,1 52657U 22053B   23009.07429090  .00004824  00000-0  32099-3 0  9996,2 52657  53.2179 301.8802 0003048  29.9997 330.1170 15.08838763 36953,6917.884,95.438,541.8580000000002,537.641,0.0
52657.0,STARLINK-4084,PAYLOAD,2023-01-09 12:54:40,15.0884104,0.0003038,53.2184,299.7988,30.1493,329.9673,0.0001107,1.474e-05,0.0,0 STARLINK-4084,1 52657U 22053B   23009.53797006  .00001474  00000-0  11070-3 0  9996,2 52657  53.2184 299.7988 0003038  30.1493 329.9673 15.08841040 37028,6917.877,95.437,541.844,537.641,0.0
52657.0,STARLINK-4084,PAYLOAD,2023-01-10 04:48:31,15.08849604,0.0002786,53.2192,296.8243,31.0616,329.0540000000001,0.0002772,4.127e-05,0.0,0 STARLINK-4084,1 52657U 22053B   23010.20036415  .00004127  00000-0  27720-3 0  9999,2 52657  53.2192 296.8243 0002786  31.0616 329.0540 15.08849604 37124,6917.851,95.437,541.643,537.789,0.0
52657.0,STARLINK-4084,PAYLOAD,2023-01-10 19:07:00,15.08836335,0.0002821,53.2174,294.1486,29.6917,330.4235,6.1258e-05,6.86e-06,0.0,0 STARLINK-4084,1 52657U 22053B   23010.79653065  .00000686  00000-0  61258-4 0  9990,2 52657  53.2174 294.1486 0002821  29.6917 330.4235 15.08836335 37215,6917.892,95.438,541.7080000000002,537.805,0.0
52657.0,STARLINK-4084,PAYLOAD,2023-01-11 01:28:32,15.08843873,0.0002823,53.2176,292.9594,26.4597,333.6539,7.6358e-05,9.27e-06,0.0,0 STARLINK-4084,1 52657U 22053B   23011.06148746  .00000927  00000-0  76358-4 0  9991,2 52657  53.2176 292.9594 0002823  26.4597 333.6539 15.08843873 37255,6917.8690000000015,95.437,541.686,537.781,0.0
52657.0,STARLINK-4084,PAYLOAD,2023-01-11 18:57:46,15.08860763,0.0002913,53.2173,289.6895,24.7859,335.3273,7.9701e-05,9.81e-06,0.0,0 STARLINK-4084,1 52657U 22053B   23011.79011628  .00000981  00000-0  79701-4 0  9994,2 52657  53.2173 289.6895 0002913  24.7859 335.3273 15.08860763 37364,6917.816999999999,95.436,541.697,537.6669999999998,0.0
52657.0,STARLINK-4084,PAYLOAD,2023-01-12 21:59:19,15.08847248,0.0002471,53.2187,284.6379,28.8845,331.2283,-0.00014047,-2.524e-05,0.0,0 STARLINK-4084,1 52657U 22053B   23012.91619242 -.00002524  00000-0 -14047-3 0  9993,2 52657  53.2187 284.6379 0002471  28.8845 331.2283 15.08847248 37538,6917.858,95.437,541.433,538.014,0.0
52657.0,STARLINK-4084,PAYLOAD,2023-01-12 23:34:42,15.08843061,0.0002782,53.2169,284.3367,20.4289,339.6814,-0.00018859,-3.289e-05,0.0,0 STARLINK-4084,1 52657U 22053B   23012.98243302 -.00003289  00000-0 -18859-3 0  9994,2 52657  53.2169 284.3367 0002782  20.4289 339.6814 15.08843061 37549,6917.871,95.437,541.661,537.811,0.0
52657.0,STARLINK-4084,PAYLOAD,2023-01-13 10:42:25,15.08827193,0.0002463999999999,53.2168,282.2565,29.3455,330.7675,-0.00029887,-5.04e-05,0.0,0 STARLINK-4084,1 52657U 22053B   23013.44612327 -.00005040  00000-0 -29887-3 0  9993,2 52657  53.2168 282.2565 0002464  29.3455 330.7675 15.08827193 37618,6917.92,95.438,541.489,538.08,0.0
52657.0,STARLINK-4084,PAYLOAD,2023-01-13 20:14:44,15.08810926,0.0002816,53.2166,280.471,25.5587,334.5544,-0.00047784,-7.879999999999999e-05,0.0,0 STARLINK-4084,1 52657U 22053B   23013.84357210 -.00007880  00000-0 -47784-3 0  9994,2 52657  53.2166 280.4710 0002816  25.5587 334.5544 15.08810926 37672,6917.969,95.439,541.7819999999999,537.886,0.0
52657.0,STARLINK-4084,PAYLOAD,2023-01-14 18:30:09,15.08825488,0.0002484,53.216,276.3075,26.721,333.391,0.00020711,3.008e-05,0.0,0 STARLINK-4084,1 52657U 22053B   23014.77094126  .00003008  00000-0  20711-3 0  9998,2 52657  53.2160 276.3075 0002484  26.7210 333.3910 15.08825488 37810,6917.925,95.438,541.508,538.071,0.0
52657.0,STARLINK-4084,PAYLOAD,2023-01-15 10:24:00,15.08839733,0.0002503,53.2167,273.3337,33.7853,326.3298,0.00042102,6.419e-05,0.0,0 STARLINK-4084,1 52657U 22053B   23015.43334160  .00006419  00000-0  42102-3 0  9994,2 52657  53.2167 273.3337 0002503  33.7853 326.3298 15.08839733 37918,6917.880999999999,95.438,541.4780000000001,538.015,0.0
52657.0,STARLINK-4084,PAYLOAD,2023-01-15 11:59:23,15.08837824,0.000259,53.2152,273.0382,35.229,324.8872,0.00040624,6.183e-05,0.0,0 STARLINK-4084,1 52657U 22053B   23015.49958312  .00006183  00000-0  40624-3 0  9996,2 52657  53.2152 273.0382 0002590  35.2290 324.8872 15.08837824 37928,6917.887,95.438,541.544,537.96,0.0
52657.0,STARLINK-4084,PAYLOAD,2023-01-15 21:31:41,15.08858739,0.000204,53.2163,271.2524,33.1828,326.9292,0.00067153,0.00010421,0.0,0 STARLINK-4084,1 52657U 22053B   23015.89701288  .00010421  00000-0  67153-3 0  9994,2 52657  53.2163 271.2524 0002040  33.1828 326.9292 15.08858739 37985,6917.823,95.436,541.099,538.2769999999999,0.0
52657.0,STARLINK-4084,PAYLOAD,2023-01-16 00:42:36,15.08601885,0.0003074,53.2158,270.6582,52.4261,307.701,-0.0046371,-0.00072875,0.0,0 STARLINK-4084,1 52657U 22053B   23016.02958575 -.00072875  00000-0 -46371-2 0  9994,2 52657  53.2158 270.6582 0003074  52.4261 307.7010 15.08601885 38006,6918.608,95.453,542.6,538.347,0.0
52657.0,STARLINK-4084,PAYLOAD,2023-01-16 10:14:47,15.08825204,0.0002319,53.2149,268.8752,38.1547,321.9609,-0.00032002,-5.376e-05,0.0,0 STARLINK-4084,1 52657U 22053B   23016.42693948 -.00005376  00000-0 -32002-3 0  9997,2 52657  53.2149 268.8752 0002319  38.1547 321.9609 15.08825204 38064,6917.926,95.438,541.395,538.186,0.0
52657.0,STARLINK-4084,PAYLOAD,2023-01-16 22:57:52,15.08829278,0.0002128,53.2166,266.4964,40.5299,319.5852,-0.00024903,-4.248e-05,0.0,0 STARLINK-4084,1 52657U 22053B   23016.95685951 -.00004248  00000-0 -24903-3 0  9998,2 52657  53.2166 266.4964 0002128  40.5299 319.5852 15.08829278 38148,6917.9130000000005,95.438,541.25,538.306,0.0
52657.0,STARLINK-4084,PAYLOAD,2023-01-17 13:16:21,15.0882657,0.0002182,53.2155,263.8198,52.4901,307.6289,-0.0001861,-3.248e-05,0.0,0 STARLINK-4084,1 52657U 22053B   23017.55302466 -.00003248  00000-0 -18610-3 0  9999,2 52657  53.2155 263.8198 0002182  52.4901 307.6289 15.08826570 38232,6917.920999999999,95.438,541.2959999999999,538.2769999999999,0.0
52657.0,STARLINK-4084,PAYLOAD,2023-01-17 21:13:17,15.0882815,0.0001928,53.2161,262.3318,53.6593,306.4576,-4.9225e-05,-1.071e-05,0.0,0 STARLINK-4084,1 52657U 22053B   23017.88422732 -.00001071  00000-0 -49225-4 0  9993,2 52657  53.2161 262.3318 0001928  53.6593 306.4576 15.08828150 38281,6917.917,95.438,541.115,538.448,0.0
52657.0,STARLINK-4084,PAYLOAD,2023-01-17 22:48:40,15.08830236,0.0001862,53.2161,262.0344,55.447,304.6698,-6.0931e-05,-1.257e-05,0.0,0 STARLINK-4084,1 52657U 22053B   23017.95046642 -.00001257  00000-0 -60931-4 0  9996,2 52657  53.2161 262.0344 0001862  55.4470 304.6698 15.08830236 38292,6917.91,95.438,541.063,538.487,0.0
52657.0,STARLINK-4084,PAYLOAD,2023-01-18 11:31:46,15.08826732,0.0002059,53.2161,259.6555,59.0226,301.0968,0.00083416,0.00013008,0.0,0 STARLINK-4084,1 52657U 22053B   23018.48039926  .00013008  00000-0  83416-3 0  9999,2 52657  53.2161 259.6555 0002059  59.0226 301.0968 15.08826732 38372,6917.920999999999,95.438,541.21,538.362,0.0
52657.0,STARLINK-4084,PAYLOAD,2023-01-18 19:28:41,15.08848504,0.0001745,53.216,258.1679,62.0122,298.1047,0.00063943,9.906e-05,0.0,0 STARLINK-4084,1 52657U 22053B   23018.81158834  .00009906  00000-0  63943-3 0  9991,2 52657  53.2160 258.1679 0001745  62.0122 298.1047 15.08848504 38423,6917.854,95.437,540.927,538.512,0.0
52657.0,STARLINK-4084,PAYLOAD,2023-01-18 22:39:27,15.08861205,0.0001796,53.2161,257.5738,59.2881,300.8288,0.0010499,0.0001647,0.0,0 STARLINK-4084,1 52657U 22053B   23018.94406728  .00016470  00000-0  10499-2 0  9994,2 52657  53.2161 257.5738 0001796  59.2881 300.8288 15.08861205 38442,6917.816,95.436,540.923,538.438,0.0
52657.0,STARLINK-4084,PAYLOAD,2023-01-19 14:33:19,15.088453,0.0001955999999999,53.2169,254.6067,68.597,291.523,0.00020021,2.9e-05,0.0,0 STARLINK-4084,1 52657U 22053B   23019.60646995  .00002900  00000-0  20021-3 0  9996,2 52657  53.2169 254.6067 0001956  68.5970 291.5230 15.08845300 38545,6917.8640000000005,95.437,541.082,538.376,0.0
52657.0,STARLINK-4084,PAYLOAD,2023-01-19 17:44:05,15.088327,0.0001948,53.2164,254.0094,48.7734,311.3426,-9.2202e-05,-1.755e-05,0.0,0 STARLINK-4084,1 52657U 22053B   23019.73895337 -.00001755  00000-0 -92202-4 0  9996,2 52657  53.2164 254.0094 0001948  48.7734 311.3426 15.08832700 38563,6917.903,95.438,541.115,538.42,0.0
